64826,KUIPER-00079,2025,93.79,-1.0,+,51.88,Active,0,LEO,USA,USA,Unknown,Unknown,Unknown,1 64826U 25151L   25221.47273290 -.00149525  00000+0 -43628-2 0  9998,2 64826  51.8783 170.8492 0006552 220.1505 139.8997 15.35328051  4917,15.35328051,0.0006552,LEO
64827,KUIPER-00080,2025,93.76,-1.0,+,51.88,Active,0,LEO,USA,USA,Unknown,Unknown,Unknown,1 64827U 25151M   25221.47688897  .00039574  00000+0  11209-2 0  9992,2 64827  51.8785 170.8804 0006076 226.6804 133.3676 15.35870560  3718,15.3587056,0.0006076,LEO
64828,KUIPER-00082,2025,93.75,-1.0,+,51.88,Active,0,LEO,USA,USA,Unknown,Unknown,Unknown,1 64828U 25151N   25221.47525111  .00044059  00000+0  12422-2 0  9994,2 64828  51.8780 170.8637 0005460 222.0003 138.0565 15.35968767  3711,15.35968767,0.000546,LEO
64829,KUIPER-00083,2025,93.78,-1.0,+,51.88,Active,0,LEO,USA,USA,Unknown,Unknown,Unknown,1 64829U 25151P   25221.58335648  .00004139  00000+0  12891-3 0  9997,2 64829  51.8774 170.4079 0005037 231.4485 333.2401 15.35529630  4923,15.3552963,0.0005037,LEO
64830,KUIPER-00084,2025,94.39,-1.0,+,51.88,Active,0,LEO,USA,USA,Unknown,Unknown,Unknown,1 64830U 25151Q   25221.58335648 -.00794628  00000+0 -33545-1 0  9997,2 64830  51.8843 170.9039 0005484 229.6096  81.6948 15.25324249  3451,15.25324249,0.0005484,LEO
64831,KUIPER-00085,2025,93.75,-1.0,+,51.88,Active,0,LEO,USA,USA,Unknown,Unknown,Unknown,1 64831U 25151R   25221.47319883  .00036446  00000+0  10277-2 0  9992,2 64831  51.8781 170.8521 0005270 225.0242 135.0317 15.36053531  3712,15.36053531,0.000527,LEO
64832,KUIPER-00086,2025,93.79,-1.0,+,51.88,Active,0,LEO,USA,USA,Unknown,Unknown,Unknown,1 64832U 25151S   25221.48355224  .00041894  00000+0  12037-2 0  9992,2 64832  51.8774 170.9176 0005158 243.4092 116.6366 15.35401129  3712,15.35401129,0.0005158,LEO
64833,KUIPER-00087,2025,93.76,-1.0,+,51.88,Active,0,LEO,USA,USA,Unknown,Unknown,Unknown,1 64833U 25151T   25221.47675124  .00036927  00000+0  10493-2 0  9991,2 64833  51.8779 170.8775 0004515 226.1556 133.9057 15.35809542  3711,15.35809542,0.0004515,LEO
